{"type":"FeatureCollection", "features": [
{"type":"Feature","geometry":{"type":"MultiPolygon","coordinates":[[[[-118.678204,33.039726],[-118.678551,33.026356],[-118.67484299999998,33.012143],[-118.671016,33.005851],[-118.67017300000002,33.000034],[-118.644732,33.000033],[-118.64343300000002,32.992843],[-118.63919399999999,32.978115],[-118.63770599999998,32.975364],[-118.63552200000001,32.9656],[-118.631501,32.957149],[-118.625916,32.947226],[-118.618597,32.936852],[-118.608802,32.92769],[-118.60547100000001,32.918204],[-118.605289,32.90854],[-118.60351899999999,32.903564],[-118.59693,32.890466],[-118.59208200000002,32.885061],[-118.58793699999998,32.878843],[-118.581318,32.871522],[-118.57505500000002,32.865733],[-118.571382,32.859302],[-118.562528,32.849438000000006],[-118.559454,32.843479],[-118.55318600000001,32.828797],[-118.546726,32.820681],[-118.538197,32.81277],[-118.52043299999998,32.801963],[-118.50765,32.796877],[-118.49966700000002,32.791044],[-118.49421100000002,32.785502],[-118.484377,32.778619],[-118.481669,32.774721],[-118.47390600000001,32.766824],[-118.46471200000002,32.760176],[-118.45380800000001,32.755111],[-118.43653800000001,32.75004],[-118.41979900000001,32.75004],[-118.408322,32.751914000000006],[-118.392557,32.758501],[-118.38534899999999,32.763559],[-118.37837700000001,32.770232],[-118.37099700000002,32.76820200000001],[-118.35910200000001,32.766156],[-118.353494,32.765807],[-118.34319199999999,32.767062],[-118.323819,32.773514],[-118.31279700000002,32.780825],[-118.30284800000001,32.788846],[-118.298469,32.794257],[-118.292813,32.803804],[-118.289905,32.81053],[-118.28878399999999,32.820829],[-118.289894,32.829383],[-118.292398,32.836394],[-118.29725,32.845094],[-118.310343,32.859505],[-118.31739,32.863765],[-118.32571100000001,32.871732],[-118.33196600000001,32.876782],[-118.33745700000001,32.879748],[-118.356393,32.894495000000006],[-118.362519,32.900117],[-118.36992200000002,32.905067],[-118.381567,32.911853],[-118.39693500000001,32.922548],[-118.41127500000002,32.936465],[-118.427692,32.949576],[-118.44886299999999,32.96175],[-118.457301,32.97092],[-118.46018200000002,32.975254],[-118.471187,32.989123],[-118.481413,33.000033],[-118.489497,33.01063],[-118.49113200000001,33.01792300000001],[-118.495582,33.026336],[-118.500911,33.030586],[-118.50766300000001,33.037883],[-118.50927300000001,33.041567],[-118.514966,33.049889],[-118.52372699999998,33.059972],[-118.542103,33.073788],[-118.55262700000002,33.078633],[-118.57833700000002,33.086243],[-118.58953300000002,33.087111],[-118.602262,33.08605],[-118.61962100000001,33.086719],[-118.63264200000002,33.084539],[-118.641301,33.081882],[-118.654363,33.074952],[-118.66384600000002,33.066846],[-118.67078200000002,33.057966],[-118.675605,33.049349],[-118.678204,33.039726]]],[[[-118.66820300000002,33.485937],[-118.667602,33.477489],[-118.66591899999999,33.467334],[-118.66175,33.456317],[-118.655057,33.44531],[-118.630734,33.423203],[-118.62591700000002,33.414265],[-118.61857399999998,33.406191],[-118.607228,33.398294],[-118.59107999999999,33.390872],[-118.573197,33.383479],[-118.56363100000002,33.38103],[-118.553376,33.380226],[-118.54792900000001,33.376799],[-118.55119299999998,33.369352],[-118.550966,33.36161],[-118.549606,33.350647],[-118.547476,33.34048],[-118.54251899999998,33.331046],[-118.54084900000001,33.325088],[-118.534885,33.315176],[-118.518037,33.29665],[-118.51038600000001,33.289659],[-118.50368,33.285314],[-118.48668799999999,33.276905],[-118.45507200000002,33.269019],[-118.427519,33.265963],[-118.412049,33.266275],[-118.402557,33.267937],[-118.39413700000001,33.265909],[-118.38558900000001,33.265358],[-118.38148700000002,33.262298],[-118.36331100000001,33.255074],[-118.343772,33.25003],[-118.32799299999999,33.248083],[-118.31862200000002,33.248472],[-118.302837,33.251005],[-118.292458,33.254078],[-118.280703,33.259092],[-118.269178,33.26568],[-118.259178,33.272505],[-118.25089700000001,33.281444],[-118.24594,33.291061],[-118.242701,33.303113],[-118.24105100000001,33.313029],[-118.24128599999999,33.323023],[-118.24510199999999,33.338341],[-118.251379,33.353397],[-118.25771400000002,33.364131],[-118.262748,33.37044],[-118.268177,33.375024],[-118.27721000000001,33.380743],[-118.28581,33.389842],[-118.29466599999999,33.397593],[-118.304102,33.403632],[-118.306591,33.407155],[-118.310947,33.425137],[-118.316351,33.434137],[-118.324653,33.441983],[-118.33277300000002,33.448044],[-118.34205700000001,33.453876],[-118.35091799999998,33.457818],[-118.35939300000001,33.464922],[-118.36921699999999,33.469005],[-118.38604899999999,33.473453],[-118.40323,33.479267],[-118.42084100000001,33.481782],[-118.42709500000001,33.487161],[-118.43683500000002,33.489443],[-118.44755000000002,33.500025],[-118.456825,33.506875],[-118.468961,33.512999],[-118.477276,33.515434],[-118.482617,33.516059],[-118.49333500000002,33.515726],[-118.500912,33.52163],[-118.50675699999998,33.524911],[-118.523236,33.530153],[-118.533639,33.531442],[-118.54660200000001,33.530841],[-118.55775000000001,33.528328],[-118.563173,33.52929],[-118.575295,33.52926],[-118.579144,33.52841],[-118.58971900000002,33.531978],[-118.599756,33.532321],[-118.61215799999998,33.53185],[-118.625916,33.528978],[-118.64405800000002,33.521284],[-118.655735,33.510818],[-118.66370999999998,33.500025],[-118.666719,33.49349],[-118.66820300000002,33.485937]]],[[[-118.147806,33.694083],[-118.114749,33.744302],[-118.11323700000001,33.746985],[-118.09197000000002,33.758472],[-118.092332,33.764532],[-118.09706000000001,33.773723],[-118.096392,33.779842],[-118.094275,33.784184],[-118.086228,33.796879],[-118.08474400000001,33.80291],[-118.07283300000002,33.814856],[-118.06317,33.81968100000001],[-118.06332199999999,33.831541],[-118.058988,33.835207],[-118.05904000000001,33.846195],[-118.05468699999999,33.846218],[-118.05472300000001,33.849821],[-118.05037499999999,33.849872],[-118.05040199999999,33.853539],[-118.04608199999998,33.853611],[-118.046188,33.858688],[-118.041853,33.858715],[-118.04188400000001,33.862332],[-118.03753600000002,33.862369],[-118.037598,33.866013],[-118.028716,33.866046],[-118.028782,33.873322],[-118.01138299999998,33.873431],[-118.01147400000002,33.880846],[-118.00275399999998,33.880894],[-118.00285500000001,33.888161],[-117.994057,33.888218],[-117.99413600000001,33.895513],[-117.98532700000001,33.895509],[-117.98540500000001,33.902766],[-117.97659300000001,33.90281],[-117.976498,33.94605],[-117.88814400000001,33.946075],[-117.871953,33.945731],[-117.851969,33.946933],[-117.79186700000001,33.946615],[-117.783252,33.946261],[-117.793551,33.953822],[-117.793667,33.968135],[-117.802445,33.968308],[-117.802539,33.975551],[-117.785033,34.004854],[-117.767525,34.004695],[-117.76704600000001,34.011193],[-117.767631,34.023509],[-117.735846,34.018554],[-117.73012500000002,34.021371],[-117.72735900000002,34.037389000000005],[-117.71647500000002,34.067577],[-117.704717,34.094409],[-117.686799,34.138122],[-117.68171300000002,34.155827],[-117.67850100000001,34.161993],[-117.646374,34.28917],[-117.650724,34.342252],[-117.659665,34.45113],[-117.659966,34.47936],[-117.660401,34.557892],[-117.667121,34.557906],[-117.666942,34.646109],[-117.667275,34.733921],[-117.66716,34.745337],[-117.66745899999998,34.822528],[-117.738725,34.823251],[-117.77493300000002,34.823302],[-117.881132,34.822517],[-117.98767799999999,34.822625],[-118.11320000000002,34.821109],[-118.20410700000001,34.820159],[-118.30865499999999,34.820063],[-118.34241199999998,34.81943],[-118.39671600000001,34.819131],[-118.48454400000001,34.818213],[-118.519347,34.818354],[-118.62724400000002,34.818169],[-118.76758799999999,34.817987],[-118.82083699999998,34.817475],[-118.854009,34.817758],[-118.854114,34.803279],[-118.876722,34.803203],[-118.88193299999999,34.807658],[-118.88419700000001,34.813358],[-118.880416,34.817843],[-118.89463399999998,34.817972],[-118.88040500000001,34.788655],[-118.84072100000002,34.706778],[-118.8144,34.652422],[-118.779725,34.58228],[-118.73086700000002,34.483232],[-118.68903,34.398221],[-118.636789,34.291804],[-118.632548,34.263429],[-118.632494,34.240391],[-118.66771400000002,34.240345],[-118.667807,34.205795],[-118.66817600000002,34.189867],[-118.66815200000002,34.168195],[-118.71199400000002,34.168619],[-118.723374,34.167861],[-118.788889,34.168214],[-118.87069700000002,34.118022],[-118.940965,34.07483],[-118.944644,34.0454],[-118.946193,34.035368],[-118.950564,34.000007],[-118.95172100000002,33.992858],[-118.94043800000001,33.991452],[-118.931653,33.99211],[-118.92620099999999,33.990999],[-118.91543,33.990424],[-118.897265,33.987805],[-118.887301,33.987223],[-118.87399799999999,33.983314],[-118.856846,33.96597],[-118.85278700000002,33.962565],[-118.841116,33.955371],[-118.83476100000001,33.952382],[-118.824893,33.949042],[-118.814752,33.947214],[-118.803613,33.94724],[-118.792126,33.949519],[-118.77903900000001,33.954527],[-118.76427800000002,33.963609],[-118.75686600000002,33.966402],[-118.74960600000001,33.971804],[-118.746391,33.975501],[-118.73552799999999,33.97703500000001],[-118.727459,33.980307],[-118.71674199999998,33.978687],[-118.704574,33.97784],[-118.698514,33.978187],[-118.689144,33.97995],[-118.677017,33.979268],[-118.666514,33.980562],[-118.656463,33.983798],[-118.64394,33.985797],[-118.63306699999998,33.985645],[-118.625916,33.987233],[-118.611321,33.986193],[-118.59971499999999,33.986668],[-118.594079,33.988065],[-118.586577,33.987013],[-118.576018,33.987517],[-118.56968700000002,33.988811],[-118.55735600000001,33.987673],[-118.548417,33.97997],[-118.533474,33.961794],[-118.523447,33.953049],[-118.508627,33.932517],[-118.500912,33.918621],[-118.47682,33.889513],[-118.45820400000001,33.865256],[-118.44725399999999,33.84876],[-118.443968,33.839057],[-118.450538,33.832265],[-118.46915300000002,33.818679],[-118.484483,33.803154],[-118.48776800000002,33.779865],[-118.485577,33.753664],[-118.46696200000001,33.725524],[-118.428637,33.701266],[-118.38593100000001,33.686712],[-118.377171,33.678953],[-118.345415,33.663427],[-118.319135,33.659547],[-118.274239,33.663429],[-118.254528,33.67507],[-118.237008,33.690595],[-118.192111,33.690593],[-118.16583,33.691563],[-118.147806,33.694083]]]]},"properties":{"STATEFP":"06","COUNTYFP":"037","COUNTYNS":"00277283","GEOID":"06037","GEOIDFQ":"0500000US06037","NAME":"Los Angeles","NAMELSAD":"Los Angeles County","LSAD":"06","CLASSFP":"H1","MTFCC":"G4020","CSAFP":"348","CBSAFP":"31080","METDIVFP":"31084","FUNCSTAT":"A","ALAND":10515988121,"AWATER":1785003256,"INTPTLAT":"+34.1963983","INTPTLON":"-118.2618616","county":"Los Angeles"}},
{"type":"Feature","geometry":{"type":"Polygon","coordinates":[[[-117.61108100000001,33.333992],[-117.571531,33.312302],[-117.549601,33.294418],[-117.520999,33.268872],[-117.507737,33.250034],[-117.500875,33.242151],[-117.467871,33.21249400000001],[-117.43556300000002,33.177512],[-117.405213,33.125038],[-117.39223800000002,33.103418],[-117.37587200000002,33.075217],[-117.35344400000001,33.001806],[-117.323279,32.903064],[-117.33264000000001,32.882161],[-117.33966000000001,32.859167],[-117.342,32.840354],[-117.3303,32.804817],[-117.32562000000001,32.731653],[-117.32093900000001,32.689847],[-117.309239,32.656401],[-117.29753800000002,32.641769],[-117.276916,32.623474],[-117.268789,32.619415],[-117.25199400000001,32.61486],[-117.246786,32.614854],[-117.233513,32.616678],[-117.22330200000002,32.621238],[-117.218196,32.610292],[-117.21411200000001,32.594781],[-117.21002500000002,32.572883],[-117.21002500000002,32.554634],[-117.20505100000001,32.529508],[-117.12607,32.534189],[-117.02661299999998,32.542691],[-116.90092,32.553365],[-116.79968400000001,32.561944],[-116.689371,32.571193],[-116.59212800000002,32.579261],[-116.43940899999998,32.591782],[-116.348103,32.599174],[-116.210825,32.610163],[-116.106177,32.618441],[-116.10616600000002,32.640202],[-116.105791,32.641513],[-116.105648,32.726494],[-116.10314900000002,32.7265],[-116.10357900000001,32.769103],[-116.10337200000001,32.789475],[-116.103738,32.801283],[-116.10366500000002,32.838724],[-116.10255799999999,32.857759],[-116.103199,32.875055],[-116.10294200000001,33.000051],[-116.103242,33.037175],[-116.10325199999998,33.07467],[-116.08109000000002,33.074833],[-116.08110200000002,33.123806],[-116.08094000000001,33.131973],[-116.08122500000002,33.191057],[-116.082092,33.241141],[-116.08319899999998,33.27964600000001],[-116.083602,33.28465],[-116.085148,33.339216],[-116.08516499999999,33.425932],[-116.129863,33.42611],[-116.19759100000002,33.428893],[-116.24699900000002,33.42821],[-116.300426,33.427766],[-116.32222300000001,33.427834],[-116.34339099999998,33.42754],[-116.48493100000002,33.427001],[-116.500848,33.426805],[-116.592667,33.427212],[-116.681777,33.42722],[-116.741695,33.427049],[-116.76427300000002,33.427106],[-116.836769,33.426865],[-116.857095,33.426574],[-116.910385,33.427131],[-116.92343200000002,33.42747],[-116.935037,33.427159],[-116.946395,33.42759],[-116.989363,33.427614],[-117.00186,33.426931],[-117.03086099999999,33.426931],[-117.030751,33.430023],[-117.06261,33.430402],[-117.10197400000001,33.430398],[-117.136446,33.432472],[-117.15886700000001,33.432629],[-117.188098,33.432177],[-117.241271,33.431993],[-117.24166800000002,33.448928],[-117.26754,33.45715],[-117.32637399999999,33.476327],[-117.370925,33.490549],[-117.364272,33.505025],[-117.50972199999998,33.505019],[-117.50937599999999,33.49184600000001],[-117.509581,33.471633],[-117.50861400000001,33.469614],[-117.515014,33.467739],[-117.538429,33.455643],[-117.55798500000002,33.451633],[-117.57848000000001,33.453927],[-117.59620300000002,33.386895],[-117.59911099999998,33.375029],[-117.61108100000001,33.333992]]]},"properties":{"STATEFP":"06","COUNTYFP":"073","COUNTYNS":"00277301","GEOID":"06073","GEOIDFQ":"0500000US06073","NAME":"San Diego","NAMELSAD":"San Diego County","LSAD":"06","CLASSFP":"H1","MTFCC":"G4020","CSAFP":"","CBSAFP":"41740","METDIVFP":"","FUNCSTAT":"A","ALAND":10905039592,"AWATER":816542690,"INTPTLAT":"+33.0236041","INTPTLON":"-116.7761174","county":"San Diego"}},
{"type":"Feature","geometry":{"type":"Polygon","coordinates":[[[-117.67301899999998,33.871039],[-117.670537,33.874264],[-117.67264899999999,33.876644],[-117.668816,33.880549],[-117.67276900000002,33.886726],[-117.676286,33.888815],[-117.654885,33.888815],[-117.65538599999998,33.925114],[-117.610947,33.925114],[-117.610943,33.971807],[-117.55837699999998,33.98842],[-117.558312,34.033451],[-117.489646,34.0335],[-117.453663,34.033617],[-117.435407,34.034227],[-117.41448,34.034313000000004],[-117.395819,34.03384],[-117.37534399999998,34.033875],[-117.37415800000001,34.030849],[-117.377284,34.026718],[-117.375385,34.025407],[-117.37541599999999,34.019399],[-117.304895,34.019301],[-117.296024,34.018247],[-117.27065700000001,34.018717],[-117.22553300000001,34.017966],[-117.225373,34.004189],[-117.19041999999999,34.004056],[-117.138528,34.004256],[-117.121323,34.003484],[-117.10389800000002,34.004375],[-117.086522,34.00382],[-117.051893,34.004118],[-117.034456,34.004881],[-117.013097,34.004325],[-116.976908,34.004814],[-116.92935700000001,34.004914],[-116.92955800000001,34.034113],[-116.87685500000002,34.034012],[-116.86593600000002,34.033774],[-116.798383,34.033846],[-116.746516,34.034062],[-116.68995900000002,34.033551],[-116.615603,34.03331],[-116.61557400000001,34.032551],[-116.512252,34.032878],[-116.40555500000002,34.032878],[-116.35310299999999,34.032583],[-116.300631,34.032544],[-116.300598,34.034401],[-116.283136,34.03431],[-116.195845,34.034328],[-116.19592299999998,34.03361],[-116.12717,34.033845],[-116.021626,34.034431],[-115.98483200000001,34.034434],[-115.98389,34.035131],[-115.87582899999998,34.035185],[-115.87417000000002,34.035305],[-115.750825,34.035222000000005],[-115.749519,34.035371],[-115.625822,34.035268],[-115.59569600000002,34.035389],[-115.500818,34.035191],[-115.492408,34.035082],[-115.373944,34.034745],[-115.31621199999998,34.03411],[-115.316065,34.077843],[-115.227265,34.077984],[-115.192442,34.077761],[-115.19238999999999,34.079422],[-115.12581099999998,34.079791],[-115.091623,34.079794],[-115.03426300000001,34.07953],[-115.003437,34.079692],[-114.875803,34.079677],[-114.79376000000002,34.07961],[-114.73632600000002,34.079271],[-114.67181300000001,34.079368],[-114.62579500000001,34.079528],[-114.610919,34.07974],[-114.500791,34.07972],[-114.435429,34.079727],[-114.434181,34.087379],[-114.428026,34.092787],[-114.426168,34.097042],[-114.415908,34.107636],[-114.41168,34.110031],[-114.401336,34.111638],[-114.390565,34.11008400000001],[-114.37922300000001,34.11599],[-114.366517,34.118577],[-114.360402,34.123577],[-114.356372,34.130428],[-114.35303,34.13312],[-114.348051,34.134457],[-114.33611200000001,34.134034],[-114.324576,34.136759],[-114.312206,34.144776],[-114.30589,34.152657],[-114.298168,34.160321],[-114.292371,34.167056],[-114.286724,34.170715],[-114.275267,34.172149],[-114.268267,34.170209],[-114.254141,34.17383],[-114.244421,34.17940300000001],[-114.24071200000002,34.183232],[-114.229715,34.186928],[-114.227034,34.188866],[-114.224941,34.193896],[-114.225861,34.201774],[-114.22338400000001,34.20513600000001],[-114.215454,34.208956],[-114.190876,34.230858],[-114.17805,34.23996900000001],[-114.175906,34.245587],[-114.173657,34.247706],[-114.166536,34.249647],[-114.164476,34.251667],[-114.164648,34.259699],[-114.153346,34.258289],[-114.144779,34.259623],[-114.13545,34.257886],[-114.13148900000002,34.260387],[-114.131211,34.26273],[-114.134768,34.268965],[-114.137045,34.277018],[-114.13605,34.280833],[-114.138365,34.288564],[-114.139534,34.295844],[-114.138282,34.30323],[-114.14093,34.305919],[-114.157206,34.317862],[-114.157939,34.320277],[-114.168807,34.339513],[-114.176909,34.349306],[-114.185556,34.354386],[-114.191094,34.356125],[-114.199482,34.361373],[-114.213774,34.36246],[-114.226107,34.365916000000006],[-114.229686,34.368908],[-114.234275,34.376662],[-114.248649,34.388113],[-114.252739,34.3901],[-114.262909,34.400373],[-114.267521,34.402486],[-114.280108,34.403147],[-114.286802,34.40534],[-114.291154,34.409784],[-114.292226,34.417606],[-114.294836,34.421389],[-114.30101600000002,34.426807],[-114.31696200000002,34.435064],[-114.32688,34.43804800000001],[-114.330669,34.445295],[-114.33425100000001,34.449335],[-114.33962700000001,34.451435],[-114.356025,34.449744],[-114.36340400000002,34.447773],[-114.371217,34.446992],[-114.375789,34.447798000000006],[-114.386699,34.457911],[-114.386584,34.463821],[-114.383525,34.470405],[-114.38155500000002,34.477883],[-114.383038,34.488903],[-114.382358,34.495758],[-114.378124,34.507288],[-114.378223,34.516521],[-114.380838,34.529724],[-114.389603,34.542982],[-114.405228,34.569637],[-114.422382,34.580711],[-114.435671,34.593841],[-114.436363,34.596797],[-114.427502,34.599227],[-114.42432600000001,34.602338],[-114.424202,34.610453],[-114.428648,34.614641],[-114.438739,34.621455],[-114.441398,34.630171],[-114.440519,34.640066],[-114.442363,34.644153],[-114.449549,34.651423],[-114.457028,34.656266],[-114.458093,34.658689],[-114.452986,34.66283],[-114.45087700000002,34.667822],[-114.454305,34.671234],[-114.455536,34.677335],[-114.462178,34.6858],[-114.465246,34.691202],[-114.46809,34.701786],[-114.46862,34.707573],[-114.47162,34.712966],[-114.477297,34.714514],[-114.482779,34.714511],[-114.487508,34.716626000000005],[-114.490971,34.724848],[-114.500795,34.730418],[-114.510292,34.733582],[-114.516619,34.736745],[-114.525611,34.747005],[-114.530355,34.75138],[-114.540306,34.757109],[-114.552682,34.766871],[-114.558653,34.773852],[-114.563979,34.782597],[-114.565184,34.785976],[-114.571847,34.796343],[-114.574474,34.804214],[-114.576452,34.8153],[-114.582197,34.828188],[-114.586842,34.835672],[-114.59233900000001,34.841153],[-114.604255,34.849573],[-114.619878,34.856873],[-114.628276,34.863596],[-114.633051,34.869971],[-114.635176,34.875003],[-114.63676800000002,34.885705],[-114.635425,34.895192],[-114.630877,34.907263],[-114.630552,34.911852],[-114.633237,34.92123],[-114.63219600000001,34.930628],[-114.62975299999998,34.938684],[-114.629811,34.94481],[-114.63495299999998,34.958918],[-114.63460699999999,34.96906],[-114.62939200000001,34.983171],[-114.62944300000001,34.991825],[-114.63348700000002,35.001857],[-114.67852400000001,35.038517],[-114.731561,35.081386],[-114.76560099999999,35.109337],[-114.797341,35.134927],[-114.83571099999999,35.165559],[-114.853932,35.179247],[-114.895389,35.213328],[-114.98436800000002,35.283975],[-114.994666,35.292511],[-115.067699,35.349736],[-115.08400199999998,35.363394],[-115.10095700000001,35.375681],[-115.161057,35.423958],[-115.164904,35.427867],[-115.21951,35.471103],[-115.25971999999999,35.503541],[-115.283996,35.52222],[-115.329567,35.558509],[-115.41808600000002,35.628389],[-115.48364200000002,35.679897000000004],[-115.55702500000001,35.737675],[-115.64633599999999,35.807735],[-115.648357,35.809211],[-115.69033700000001,35.808804],[-115.735745,35.809097],[-115.735891,35.79362],[-115.842936,35.793631],[-115.86317600000001,35.793541],[-115.895163,35.793811],[-115.972965,35.793635],[-116.036496,35.793558],[-116.05763,35.793973],[-116.07030599999999,35.793473],[-116.109573,35.793448000000005],[-116.15071700000001,35.793608],[-116.201094,35.793473],[-116.211233,35.793291],[-116.25502500000002,35.79353400000001],[-116.277263,35.793394],[-116.340548,35.793997],[-116.427919,35.794381],[-116.50081800000001,35.79496400000001],[-116.60042,35.795202],[-116.651095,35.795433],[-116.717302,35.795361],[-116.805531,35.795528000000004],[-116.87063200000001,35.795376],[-116.958158,35.7954],[-116.980316,35.79554],[-117.11799199999999,35.795244],[-117.125883,35.795658],[-117.25101500000001,35.795004],[-117.334743,35.795253],[-117.375889,35.79515],[-117.44509300000001,35.795836],[-117.48974000000001,35.79594],[-117.50089300000002,35.795701],[-117.54228900000001,35.795822],[-117.634283,35.79726],[-117.634462,35.753822],[-117.634315,35.70983],[-117.65213600000001,35.709858],[-117.65218400000002,35.680771],[-117.61651800000001,35.680687],[-117.61651800000001,35.651611],[-117.634346,35.651571],[-117.634249,35.608135],[-117.63483,35.59391],[-117.63447200000002,35.580697],[-117.634607,35.564258],[-117.630076,35.564254],[-117.63003499999999,35.533296],[-117.630319,35.480906],[-117.62968600000002,35.466159],[-117.63021899999998,35.451409],[-117.63366200000002,35.45141],[-117.633727,35.43454],[-117.631295,35.419566],[-117.632474,35.405582],[-117.63113100000001,35.361724],[-117.63136599999999,35.332407],[-117.631373,35.288672],[-117.63086300000002,35.22286],[-117.631208,35.202464],[-117.631194,35.123693],[-117.63088,35.097604],[-117.63328999999999,35.097558],[-117.632907,35.080062],[-117.632856,35.038974],[-117.632226,34.991334],[-117.632613,34.983561],[-117.63208500000002,34.91008],[-117.631799,34.836743],[-117.632151,34.822271],[-117.66745899999998,34.822528],[-117.66716,34.745337],[-117.667275,34.733921],[-117.666942,34.646109],[-117.667121,34.557906],[-117.660401,34.557892],[-117.659966,34.47936],[-117.659665,34.45113],[-117.650724,34.342252],[-117.646374,34.28917],[-117.67850100000001,34.161993],[-117.68171300000002,34.155827],[-117.686799,34.138122],[-117.704717,34.094409],[-117.71647500000002,34.067577],[-117.72735900000002,34.037389000000005],[-117.73012500000002,34.021371],[-117.735846,34.018554],[-117.767631,34.023509],[-117.76704600000001,34.011193],[-117.767525,34.004695],[-117.785033,34.004854],[-117.802539,33.975551],[-117.802445,33.968308],[-117.793667,33.968135],[-117.793551,33.953822],[-117.783252,33.946261],[-117.748687,33.921814],[-117.73253200000002,33.911352],[-117.73254499999999,33.910334],[-117.679303,33.877621],[-117.67301899999998,33.871039]]]},"properties":{"STATEFP":"06","COUNTYFP":"071","COUNTYNS":"00277300","GEOID":"06071","GEOIDFQ":"0500000US06071","NAME":"San Bernardino","NAMELSAD":"San Bernardino County","LSAD":"06","CLASSFP":"H1","MTFCC":"G4020","CSAFP":"348","CBSAFP":"40140","METDIVFP":"","FUNCSTAT":"A","ALAND":51976311343,"AWATER":96418184,"INTPTLAT":"+34.8566615","INTPTLON":"-116.1815707","county":"San Bernardino"}},
{"type":"Feature","geometry":{"type":"Polygon","coordinates":[[[-116.08516499999999,33.425932],[-116.04141699999998,33.426214],[-115.99794000000001,33.426269],[-115.99041100000001,33.426534],[-115.87583,33.426463],[-115.83884400000001,33.427052],[-115.71722999999999,33.426923],[-115.682916,33.427397],[-115.625822,33.427108],[-115.60965499999999,33.426873],[-115.50661400000001,33.426869],[-115.467506,33.426992],[-115.467505,33.428402],[-115.366756,33.42803],[-115.25081100000001,33.428217],[-115.22324399999998,33.42847],[-115.125806,33.429046],[-115.10166199999999,33.428274],[-115.06319700000002,33.428103],[-115.05773300000001,33.428629],[-115.030055,33.428606],[-115.00080100000001,33.42942],[-114.875797,33.430281],[-114.830833,33.430094],[-114.830869,33.433708],[-114.75079299999999,33.43375],[-114.711156,33.433566],[-114.6908,33.433743],[-114.627125,33.433554],[-114.622283,33.447558],[-114.62291800000001,33.456561],[-114.61433100000002,33.467315],[-114.612472,33.470768],[-114.60784300000002,33.474834],[-114.599712,33.484316],[-114.59728300000002,33.490653],[-114.592369,33.498675],[-114.589246,33.501813],[-114.580468,33.506465],[-114.569533,33.509219],[-114.560963,33.516739],[-114.56083500000001,33.524334],[-114.558023,33.532589],[-114.542011,33.542481],[-114.531802,33.547862],[-114.530401,33.550099],[-114.524215,33.553068],[-114.52822,33.559318],[-114.531613,33.561702],[-114.53596500000002,33.569154],[-114.540652,33.58287200000001],[-114.540617,33.591412],[-114.537493,33.594895],[-114.531051,33.604482],[-114.526782,33.608831],[-114.522071,33.611277],[-114.522367,33.614172],[-114.527378,33.617828],[-114.531215,33.623913],[-114.531034,33.628213],[-114.52637,33.630259],[-114.523802,33.6347],[-114.525394,33.640669],[-114.52954900000002,33.643861],[-114.533215,33.648443],[-114.533194,33.65166],[-114.530583,33.654461],[-114.525163,33.655939],[-114.518337,33.655927],[-114.514057,33.660179],[-114.517112,33.662877],[-114.52643900000001,33.66388],[-114.532123,33.669702],[-114.530348,33.679245],[-114.523959,33.685879],[-114.512409,33.691282],[-114.507996,33.692018],[-114.496489,33.696901],[-114.494407,33.705395],[-114.494333,33.710635],[-114.496565,33.719155],[-114.500788,33.722204000000005],[-114.504176,33.728055],[-114.51234800000002,33.734214],[-114.508206,33.741587],[-114.504483,33.750998],[-114.504863,33.760465],[-114.507089,33.76793],[-114.516734,33.788345],[-114.51894200000001,33.797302],[-114.52805,33.814963],[-114.522714,33.818979],[-114.51997,33.825381],[-114.523409,33.835323],[-114.529597,33.848063],[-114.529883,33.857563],[-114.524292,33.860133],[-114.51681100000002,33.85812],[-114.503887,33.865754],[-114.503066,33.868781],[-114.50434,33.876882],[-114.510138,33.880777],[-114.51866,33.88826300000001],[-114.524813,33.895684],[-114.52569,33.901428],[-114.516344,33.897918],[-114.512383,33.898383],[-114.507988,33.901813],[-114.508558,33.906098],[-114.514503,33.914214],[-114.523393,33.921221],[-114.534146,33.925187],[-114.535753,33.92753],[-114.535478,33.934651],[-114.52868,33.947817],[-114.522002,33.955623],[-114.51497,33.958149],[-114.510428,33.957043],[-114.499883,33.961789],[-114.496042,33.96589],[-114.485348,33.974933],[-114.48233300000001,33.980181],[-114.470357,33.988972],[-114.467932,33.992877],[-114.46012,33.993888],[-114.45819400000002,33.996438],[-114.459184,34.000016],[-114.46628,34.003885],[-114.467404,34.00745],[-114.463336,34.01225900000001],[-114.454807,34.010968],[-114.443821,34.016176],[-114.43826600000001,34.022609],[-114.436171,34.028083],[-114.434949,34.037784],[-114.43549800000001,34.042566],[-114.438602,34.050205],[-114.43934,34.057893],[-114.437683,34.071937],[-114.435429,34.079727],[-114.500791,34.07972],[-114.610919,34.07974],[-114.62579500000001,34.079528],[-114.67181300000001,34.079368],[-114.73632600000002,34.079271],[-114.79376000000002,34.07961],[-114.875803,34.079677],[-115.003437,34.079692],[-115.03426300000001,34.07953],[-115.091623,34.079794],[-115.12581099999998,34.079791],[-115.19238999999999,34.079422],[-115.192442,34.077761],[-115.227265,34.077984],[-115.316065,34.077843],[-115.31621199999998,34.03411],[-115.373944,34.034745],[-115.492408,34.035082],[-115.500818,34.035191],[-115.59569600000002,34.035389],[-115.625822,34.035268],[-115.749519,34.035371],[-115.750825,34.035222000000005],[-115.87417000000002,34.035305],[-115.87582899999998,34.035185],[-115.98389,34.035131],[-115.98483200000001,34.034434],[-116.021626,34.034431],[-116.12717,34.033845],[-116.19592299999998,34.03361],[-116.195845,34.034328],[-116.283136,34.03431],[-116.300598,34.034401],[-116.300631,34.032544],[-116.35310299999999,34.032583],[-116.40555500000002,34.032878],[-116.512252,34.032878],[-116.61557400000001,34.032551],[-116.615603,34.03331],[-116.68995900000002,34.033551],[-116.746516,34.034062],[-116.798383,34.033846],[-116.86593600000002,34.033774],[-116.87685500000002,34.034012],[-116.92955800000001,34.034113],[-116.92935700000001,34.004914],[-116.976908,34.004814],[-117.013097,34.004325],[-117.034456,34.004881],[-117.051893,34.004118],[-117.086522,34.00382],[-117.10389800000002,34.004375],[-117.121323,34.003484],[-117.138528,34.004256],[-117.19041999999999,34.004056],[-117.225373,34.004189],[-117.22553300000001,34.017966],[-117.27065700000001,34.018717],[-117.296024,34.018247],[-117.304895,34.019301],[-117.37541599999999,34.019399],[-117.375385,34.025407],[-117.377284,34.026718],[-117.37415800000001,34.030849],[-117.37534399999998,34.033875],[-117.395819,34.03384],[-117.41448,34.034313000000004],[-117.435407,34.034227],[-117.453663,34.033617],[-117.489646,34.0335],[-117.558312,34.033451],[-117.55837699999998,33.98842],[-117.610943,33.971807],[-117.610947,33.925114],[-117.65538599999998,33.925114],[-117.654885,33.888815],[-117.676286,33.888815],[-117.67276900000002,33.886726],[-117.668816,33.880549],[-117.67264899999999,33.876644],[-117.670537,33.874264],[-117.67301899999998,33.871039],[-117.67505300000002,33.868725],[-117.67428200000002,33.857956],[-117.66211700000001,33.857499],[-117.63736399999999,33.830768],[-117.60763900000002,33.797731],[-117.58078900000001,33.769477],[-117.580136,33.767988],[-117.569069,33.764574],[-117.536448,33.757665],[-117.535807,33.750018],[-117.53492700000001,33.724338],[-117.53399900000001,33.710355],[-117.497118,33.705506],[-117.474573,33.703811],[-117.45981700000002,33.691714],[-117.419029,33.663567],[-117.412987,33.659045],[-117.418662,33.651616],[-117.458113,33.601965],[-117.475549,33.579223],[-117.496701,33.552615],[-117.50116200000001,33.545814],[-117.51021000000001,33.533999],[-117.509909,33.520546],[-117.503181,33.520405],[-117.50375599999998,33.508945],[-117.509725,33.509062],[-117.50972199999998,33.505019],[-117.364272,33.505025],[-117.370925,33.490549],[-117.32637399999999,33.476327],[-117.26754,33.45715],[-117.24166800000002,33.448928],[-117.241271,33.431993],[-117.188098,33.432177],[-117.15886700000001,33.432629],[-117.136446,33.432472],[-117.10197400000001,33.430398],[-117.06261,33.430402],[-117.030751,33.430023],[-117.03086099999999,33.426931],[-117.00186,33.426931],[-116.989363,33.427614],[-116.946395,33.42759],[-116.935037,33.427159],[-116.92343200000002,33.42747],[-116.910385,33.427131],[-116.857095,33.426574],[-116.836769,33.426865],[-116.76427300000002,33.427106],[-116.741695,33.427049],[-116.681777,33.42722],[-116.592667,33.427212],[-116.500848,33.426805],[-116.48493100000002,33.427001],[-116.34339099999998,33.42754],[-116.32222300000001,33.427834],[-116.300426,33.427766],[-116.24699900000002,33.42821],[-116.19759100000002,33.428893],[-116.129863,33.42611],[-116.08516499999999,33.425932]]]},"properties":{"STATEFP":"06","COUNTYFP":"065","COUNTYNS":"00277297","GEOID":"06065","GEOIDFQ":"0500000US06065","NAME":"Riverside","NAMELSAD":"Riverside County","LSAD":"06","CLASSFP":"H1","MTFCC":"G4020","CSAFP":"348","CBSAFP":"40140","METDIVFP":"","FUNCSTAT":"A","ALAND":18671879658,"AWATER":242864215,"INTPTLAT":"+33.7298275","INTPTLON":"-116.0022389","county":"Riverside"}},
{"type":"Feature","geometry":{"type":"Polygon","coordinates":[[[-117.783252,33.946261],[-117.79186700000001,33.946615],[-117.851969,33.946933],[-117.871953,33.945731],[-117.88814400000001,33.946075],[-117.976498,33.94605],[-117.97659300000001,33.90281],[-117.98540500000001,33.902766],[-117.98532700000001,33.895509],[-117.99413600000001,33.895513],[-117.994057,33.888218],[-118.00285500000001,33.888161],[-118.00275399999998,33.880894],[-118.01147400000002,33.880846],[-118.01138299999998,33.873431],[-118.028782,33.873322],[-118.028716,33.866046],[-118.037598,33.866013],[-118.03753600000002,33.862369],[-118.04188400000001,33.862332],[-118.041853,33.858715],[-118.046188,33.858688],[-118.04608199999998,33.853611],[-118.05040199999999,33.853539],[-118.05037499999999,33.849872],[-118.05472300000001,33.849821],[-118.05468699999999,33.846218],[-118.05904000000001,33.846195],[-118.058988,33.835207],[-118.06332199999999,33.831541],[-118.06317,33.81968100000001],[-118.07283300000002,33.814856],[-118.08474400000001,33.80291],[-118.086228,33.796879],[-118.094275,33.784184],[-118.096392,33.779842],[-118.09706000000001,33.773723],[-118.092332,33.764532],[-118.09197000000002,33.758472],[-118.11323700000001,33.746985],[-118.114749,33.744302],[-118.147806,33.694083],[-118.1259,33.697151],[-118.10747800000001,33.668778],[-118.096473,33.653651],[-118.075074,33.639606],[-118.049848,33.620015],[-118.033611,33.609354],[-118.015323,33.599487],[-118.00022500000001,33.592748],[-117.97380700000001,33.576229],[-117.93404599999998,33.549254000000005],[-117.873695,33.51977],[-117.836037,33.500026],[-117.82659300000002,33.496995],[-117.816356,33.490872],[-117.81127700000002,33.482019],[-117.80441799999998,33.476616],[-117.793262,33.469782],[-117.79047799999998,33.461241],[-117.78147000000001,33.450656],[-117.776062,33.445291],[-117.76514,33.431539],[-117.741409,33.410118],[-117.735336,33.407436],[-117.725719,33.407436],[-117.713571,33.408777],[-117.68518700000001,33.387755],[-117.666181,33.375031],[-117.653795,33.364818],[-117.64786,33.363635],[-117.636201,33.349128],[-117.62588000000001,33.342109],[-117.61108100000001,33.333992],[-117.59911099999998,33.375029],[-117.59620300000002,33.386895],[-117.57848000000001,33.453927],[-117.55798500000002,33.451633],[-117.538429,33.455643],[-117.515014,33.467739],[-117.50861400000001,33.469614],[-117.509581,33.471633],[-117.50937599999999,33.49184600000001],[-117.50972199999998,33.505019],[-117.509725,33.509062],[-117.50375599999998,33.508945],[-117.503181,33.520405],[-117.509909,33.520546],[-117.51021000000001,33.533999],[-117.50116200000001,33.545814],[-117.496701,33.552615],[-117.475549,33.579223],[-117.458113,33.601965],[-117.418662,33.651616],[-117.412987,33.659045],[-117.419029,33.663567],[-117.45981700000002,33.691714],[-117.474573,33.703811],[-117.497118,33.705506],[-117.53399900000001,33.710355],[-117.53492700000001,33.724338],[-117.535807,33.750018],[-117.536448,33.757665],[-117.569069,33.764574],[-117.580136,33.767988],[-117.58078900000001,33.769477],[-117.60763900000002,33.797731],[-117.63736399999999,33.830768],[-117.66211700000001,33.857499],[-117.67428200000002,33.857956],[-117.67505300000002,33.868725],[-117.67301899999998,33.871039],[-117.679303,33.877621],[-117.73254499999999,33.910334],[-117.73253200000002,33.911352],[-117.748687,33.921814],[-117.783252,33.946261]]]},"properties":{"STATEFP":"06","COUNTYFP":"059","COUNTYNS":"00277294","GEOID":"06059","GEOIDFQ":"0500000US06059","NAME":"Orange","NAMELSAD":"Orange County","LSAD":"06","CLASSFP":"H1","MTFCC":"G4020","CSAFP":"348","CBSAFP":"31080","METDIVFP":"11244","FUNCSTAT":"A","ALAND":2053499195,"AWATER":406256078,"INTPTLAT":"+33.6756872","INTPTLON":"-117.7772068","county":"Orange"}}
]}